NORAD_CAT_ID,OBJECT_NAME,OBJECT_TYPE,EPOCH,MEAN_MOTION,ECCENTRICITY,INCLINATION,RA_OF_ASC_NODE,ARG_OF_PERICENTER,MEAN_ANOMALY,BSTAR,MEAN_MOTION_DOT,MEAN_MOTION_DDOT,TLE_LINE0,TLE_LINE1,TLE_LINE2,SEMIMAJOR_AXIS,PERIOD,APOGEE,PERIGEE,DECAYED
52375.0,STARLINK-3785,PAYLOAD,2023-03-09 06:49:13,15.08860739,0.000119,53.2159,71.0751,78.9795,281.1331,0.0016577,0.00026208,0.0,0 STARLINK-3785,1 52375U 22045AW  23068.28418404  .00026208  00000-0  16577-2 0  9991,2 52375  53.2159  71.0751 0001190  78.9795 281.1331 15.08860739 50401,6917.817,95.436,540.505,538.859,0.0
52375.0,STARLINK-3785,PAYLOAD,2023-03-09 09:59:59,15.08867844,0.0001258,53.2162,70.48,78.2698,281.8435,0.0017336,0.00027431,0.0,0 STARLINK-3785,1 52375U 22045AW  23068.41666170  .00027431  00000-0  17336-2 0  9994,2 52375  53.2162  70.4800 0001258  78.2698 281.8435 15.08867844 50421,6917.795,95.436,540.531,538.79,0.0
52375.0,STARLINK-3785,PAYLOAD,2023-03-10 05:04:36,15.08869016,0.0001166,53.2157,66.9095,108.4868,251.625,0.0018824,0.00029821,0.0,0 STARLINK-3785,1 52375U 22045AW  23069.21153798  .00029821  00000-0  18824-2 0  9998,2 52375  53.2157  66.9095 0001166 108.4868 251.6250 15.08869016 50540,6917.792,95.436,540.463,538.85,0.0
52375.0,STARLINK-3785,PAYLOAD,2023-03-10 16:12:18,15.08860781,0.0001625,53.2164,64.8292,65.1538,294.9623,0.0012645,0.00019905,0.0,0 STARLINK-3785,1 52375U 22045AW  23069.67521837  .00019905  00000-0  12645-2 0  9998,2 52375  53.2164  64.8292 0001625  65.1538 294.9623 15.08860781 50619,6917.817,95.436,540.806,538.558,0.0
52375.0,STARLINK-3785,PAYLOAD,2023-03-11 06:30:47,15.08830979,0.0001619,53.2183,62.1588,106.4915,253.6255,0.00084635,0.00013204,0.0,0 STARLINK-3785,1 52375U 22045AW  23070.27138442  .00013204  00000-0  84635-3 0  9997,2 52375  53.2183  62.1588 0001619 106.4915 253.6255 15.08830979 50709,6917.908,95.438,540.893,538.653,0.0
52375.0,STARLINK-3785,PAYLOAD,2023-03-11 11:16:56,15.0884822,0.0001181,53.2165,61.2613,86.1462,273.9665,0.00091065,0.00014238,0.0,0 STARLINK-3785,1 52375U 22045AW  23070.47010197  .00014238  00000-0  91065-3 0  9998,2 52375  53.2165  61.2613 0001181  86.1462 273.9665 15.08848220 50734,6917.855,95.437,540.537,538.903,0.0
52375.0,STARLINK-3785,PAYLOAD,2023-03-12 00:00:02,15.08832181,0.0001169,53.2168,58.8814,92.6611,267.4515,0.00079962,0.00012458,0.0,0 STARLINK-3785,1 52375U 22045AW  23071.00003095  .00012458  00000-0  79962-3 0  9991,2 52375  53.2168  58.8814 0001169  92.6611 267.4515 15.08832181 50816,6917.904,95.438,540.578,538.961,0.0
52375.0,STARLINK-3785,PAYLOAD,2023-03-12 09:32:21,15.0885119,0.0001495,53.2163,57.0972,100.5857,259.5303,0.0015945,0.00025187,0.0,0 STARLINK-3785,1 52375U 22045AW  23071.39747026  .00025187  00000-0  15945-2 0  9995,2 52375  53.2163  57.0972 0001495 100.5857 259.5303 15.08851190 50874,6917.846,95.437,540.745,538.677,0.0
52375.0,STARLINK-3785,PAYLOAD,2023-03-13 07:47:44,15.08866388,0.000171,53.2162,52.9363,76.5292,283.589,0.0013202,0.00020801,0.0,0 STARLINK-3785,1 52375U 22045AW  23072.32482597  .00020801  00000-0  13202-2 0  9990,2 52375  53.2162  52.9363 0001710  76.5292 283.5890 15.08866388 51016,6917.8,95.436,540.848,538.482,0.0
52375.0,STARLINK-3785,PAYLOAD,2023-03-14 06:03:09,15.08842948,0.0001227,53.2164,48.7733,90.1004,270.0128,0.0013038,0.00020525,0.0,0 STARLINK-3785,1 52375U 22045AW  23073.25219165  .00020525  00000-0  13038-2 0  9992,2 52375  53.2164  48.7733 0001227  90.1004 270.0128 15.08842948 51154,6917.871,95.437,540.585,538.888,0.0
52375.0,STARLINK-3785,PAYLOAD,2023-03-14 07:38:32,15.08845471,0.0001265,53.2164,48.4748,77.692,282.4214,0.0012661,0.00019922,0.0,0 STARLINK-3785,1 52375U 22045AW  23073.31843183  .00019922  00000-0  12661-2 0  9992,2 52375  53.2164  48.4748 0001265  77.6920 282.4214 15.08845471 51164,6917.864,95.437,540.604,538.854,0.0
52375.0,STARLINK-3785,PAYLOAD,2023-03-14 15:35:28,15.08846263,0.0001275,53.216,46.9877,81.3543,278.7593,0.00089921,0.00014054,0.0,0 STARLINK-3785,1 52375U 22045AW  23073.64963186  .00014054  00000-0  89921-3 0  9999,2 52375  53.2160  46.9877 0001275  81.3543 278.7593 15.08846263 51214,6917.861,95.437,540.608,538.844,0.0
52375.0,STARLINK-3785,PAYLOAD,2023-03-14 21:57:00,15.08851896,0.0001296,53.2161,45.7972,86.5772,273.5369,0.00081065,0.00012641,0.0,0 STARLINK-3785,1 52375U 22045AW  23073.91459005  .00012641  00000-0  81065-3 0  9990,2 52375  53.2161  45.7972 0001296  86.5772 273.5369 15.08851896 51258,6917.844,95.437,540.606,538.812,0.0
52375.0,STARLINK-3785,PAYLOAD,2023-03-15 07:29:18,15.08883653,0.0001327,53.2155,44.0128,91.9752,268.1392,0.0016098,0.00025456,0.0,0 STARLINK-3785,1 52375U 22045AW  23074.31201988  .00025456  00000-0  16098-2 0  9991,2 52375  53.2155  44.0128 0001327  91.9752 268.1392 15.08883653 51318,6917.747,95.435,540.53,538.694,0.0
52375.0,STARLINK-3785,PAYLOAD,2023-03-15 21:47:46,15.08848065,6.68e-05,53.2173,41.3401,76.5281,283.5786,0.00053505,8.24e-05,0.0,0 STARLINK-3785,1 52375U 22045AW  23074.90818093  .00008240  00000-0  53505-3 0  9994,2 52375  53.2173  41.3401 0000668  76.5281 283.5786 15.08848065 51401,6917.856,95.437,540.183,539.259,0.0
52375.0,STARLINK-3785,PAYLOAD,2023-03-16 04:09:19,15.08858109,0.0001019,53.2167,40.1495,100.4115,259.6992,0.00054189,8.351e-05,0.0,0 STARLINK-3785,1 52375U 22045AW  23075.17313827  .00008351  00000-0  54189-3 0  9991,2 52375  53.2167  40.1495 0001019 100.4115 259.6992 15.08858109 51445,6917.825,95.436,540.395,538.985,0.0
52375.0,STARLINK-3785,PAYLOAD,2023-03-17 07:10:53,15.08835087,0.0001132,53.2174,35.0908,102.5019,257.61,-8.4574e-05,-1.633e-05,0.0,0 STARLINK-3785,1 52375U 22045AW  23076.29922678 -.00001633  00000-0 -84574-4 0  9995,2 52375  53.2174  35.0908 0001132 102.5019 257.6100 15.08835087 51615,6917.895,95.438,540.544,538.977,0.0
52375.0,STARLINK-3785,PAYLOAD,2023-03-18 13:23:12,15.08844892,8.18e-05,53.2156,29.4437,86.9382,273.1704,0.00024745,3.653e-05,0.0,0 STARLINK-3785,1 52375U 22045AW  23077.55778709  .00003653  00000-0  24745-3 0  9994,2 52375  53.2156  29.4437 0000818  86.9382 273.1704 15.08844892 51805,6917.865,95.437,540.296,539.165,0.0
52375.0,STARLINK-3785,PAYLOAD,2023-03-18 21:20:08,15.08839389,0.0001277,53.2165,27.957,96.7067,263.4071,0.00012709,1.735e-05,0.0,0 STARLINK-3785,1 52375U 22045AW  23077.88899103  .00001735  00000-0  12709-3 0  9998,2 52375  53.2165  27.9570 0001277  96.7067 263.4071 15.08839389 51854,6917.882,95.438,540.631,538.864,0.0
52375.0,STARLINK-3785,PAYLOAD,2023-03-19 13:14:00,15.08838325,0.0001251,53.217,24.9823,83.7593,276.3542,9.1792e-05,1.173e-05,0.0,0 STARLINK-3785,1 52375U 22045AW  23078.55139277  .00001173  00000-0  91792-4 0  9998,2 52375  53.2170  24.9823 0001251  83.7593 276.3542 15.08838325 51956,6917.886,95.438,540.616,538.885,0.0
52375.0,STARLINK-3785,PAYLOAD,2023-03-20 05:07:51,15.08849885,0.00012,53.2173,22.0094,89.0446,271.0684,6.8868e-05,8.09e-06,0.0,0 STARLINK-3785,1 52375U 22045AW  23079.21378617  .00000809  00000-0  68868-4 0  9998,2 52375  53.2173  22.0094 0001200  89.0446 271.0684 15.08849885 52052,6917.85,95.437,540.545,538.885,0.0
52375.0,STARLINK-3785,PAYLOAD,2023-03-20 13:04:47,15.08842355,0.0001419,53.2176,20.5225,78.4147,281.7005,4.318e-05,3.99e-06,0.0,0 STARLINK-3785,1 52375U 22045AW  23079.54498946  .00000399  00000-0  43180-4 0  9996,2 52375  53.2176  20.5225 0001419  78.4147 281.7005 15.08842355 52102,6917.873,95.437,540.72,538.757,0.0
52375.0,STARLINK-3785,PAYLOAD,2023-03-21 04:58:38,15.0884303,0.0001174,53.2168,17.5505,73.3785,286.7336,-6.719e-05,-1.357e-05,0.0,0 STARLINK-3785,1 52375U 22045AW  23080.20738936 -.00001357  00000-0 -67190-4 0  9991,2 52375  53.2168  17.5505 0001174  73.3785 286.7336 15.08843030 52204,6917.871,95.437,540.548,538.924,0.0
52375.0,STARLINK-3785,PAYLOAD,2023-03-22 04:49:25,15.08846597,0.0001149,53.2179,13.0891,93.0556,267.0568,0.00013091,1.797e-05,0.0,0 STARLINK-3785,1 52375U 22045AW  23081.20099319  .00001797  00000-0  13091-3 0  9993,2 52375  53.2179  13.0891 0001149  93.0556 267.0568 15.08846597 52358,6917.86,95.437,540.52,538.93,0.0
52375.0,STARLINK-3785,PAYLOAD,2023-03-23 04:40:12,15.08861083,0.0001081,53.2179,8.6284,77.7919,282.3195,0.00038593,5.863e-05,0.0,0 STARLINK-3785,1 52375U 22045AW  23082.19458767  .00005863  00000-0  38593-3 0  9990,2 52375  53.2179   8.6284 0001081  77.7919 282.3195 15.08861083 52501,6917.816,95.436,540.429,538.933,0.0
52375.0,STARLINK-3785,PAYLOAD,2023-03-23 22:09:27,15.08843349,0.0001247,53.2183,5.3582,75.885,284.228,0.00010821,1.435e-05,0.0,0 STARLINK-3785,1 52375U 22045AW  23082.92323955  .00001435  00000-0  10821-3 0  9996,2 52375  53.2183   5.3582 0001247  75.8850 284.2280 15.08843349 52611,6917.87,95.437,540.598,538.872,0.0
52375.0,STARLINK-3785,PAYLOAD,2023-03-24 04:30:59,15.08883957,0.000125,53.217,4.1673,84.5173,275.5962,0.00097267,0.00015245,0.0,0 STARLINK-3785,1 52375U 22045AW  23083.18818586  .00015245  00000-0  97267-3 0  9997,2 52375  53.2170   4.1673 0001250  84.5173 275.5962 15.08883957 52657,6917.746,95.435,540.476,538.746,0.0
52375.0,STARLINK-3785,PAYLOAD,2023-03-24 22:00:13,15.08859382,0.0001095,53.217,0.8982,92.2434,267.8684,6.2155e-05,7.02e-06,0.0,0 STARLINK-3785,1 52375U 22045AW  23083.91681839  .00000702  00000-0  62155-4 0  9998,2 52375  53.2170   0.8982 0001095  92.2434 267.8684 15.08859382 52768,6917.821,95.436,540.444,538.929,0.0
52375.0,STARLINK-3785,PAYLOAD,2023-03-25 04:21:45,15.08875018,0.0001109,53.2173,359.7075,69.0838,291.0273,0.00059169,9.15e-05,0.0,0 STARLINK-3785,1 52375U 22045AW  23084.18177171  .00009150  00000-0  59169-3 0  9993,2 52375  53.2173 359.7075 0001109  69.0838 291.0273 15.08875018 52808,6917.773,95.435,540.406,538.871,0.0
52375.0,STARLINK-3785,PAYLOAD,2023-03-25 21:51:01,15.08813775,0.0001046,53.2168,356.4361,67.7418,292.3685,-0.00054377,-8.925e-05,0.0,0 STARLINK-3785,1 52375U 22045AW  23084.91043297 -.00008925  00000-0 -54377-3 0  9992,2 52375  53.2168 356.4361 0001046  67.7418 292.3685 15.08813775 52918,6917.961,95.439,540.549,539.102,0.0
